[Satellite]
VERSION=1.1
NAME=APSTAR 9
NICKNAME=APSTAR 9
TLE1=1 40982U 15059A   17185.81942563 -.00000271  00000-0  00000-0 0  9994
TLE2=2 40982   0.0206 274.1905 0000293 185.2514 260.5535  1.00272473  6380
